CCSDS_OMM_VERS = 2.0
CREATION_DATE  = 
ORIGINATOR     = 

OBJECT_NAME    = STARLINK-36749
OBJECT_ID      = 2026-026P
CENTER_NAME    = EARTH
REF_FRAME      = TEME
TIME_SYSTEM    = UTC
MEAN_ELEMENT_THEORY = SGP/SGP4

EPOCH          = 2026-03-08T14:00:01.999872
MEAN_MOTION    = 15.49180152
ECCENTRICITY   = .00017402
INCLINATION    = 97.2848
RA_OF_ASC_NODE = 122.0800
ARG_OF_PERICENTER = 87.8111
MEAN_ANOMALY   = 77.0431

EPHEMERIS_TYPE = 0
CLASSIFICATION_TYPE = U
NORAD_CAT_ID   = 67734
ELEMENT_SET_NO = 999
REV_AT_EPOCH   = 513
BSTAR          = -.23954738E-3
MEAN_MOTION_DOT = -.13093E-3
MEAN_MOTION_DDOT = 0

CCSDS_OMM_VERS = 2.0
CREATION_DATE  = 
ORIGINATOR     = 

OBJECT_NAME    = STARLINK-36691
OBJECT_ID      = 2026-026Q
CENTER_NAME    = EARTH
REF_FRAME      = TEME
TIME_SYSTEM    = UTC
MEAN_ELEMENT_THEORY = SGP/SGP4

EPOCH          = 2026-03-08T14:00:01.999872
MEAN_MOTION    = 15.54224669
ECCENTRICITY   = .00012852
INCLINATION    = 97.2844
RA_OF_ASC_NODE = 122.1667
ARG_OF_PERICENTER = 85.8880
MEAN_ANOMALY   = 279.2225

EPHEMERIS_TYPE = 0
CLASSIFICATION_TYPE = U
NORAD_CAT_ID   = 67735
ELEMENT_SET_NO = 999
REV_AT_EPOCH   = 527
BSTAR          = -.31577287E-1
MEAN_MOTION_DOT = -.1824028E-1
MEAN_MOTION_DDOT = 0

CCSDS_OMM_VERS = 2.0
CREATION_DATE  = 
ORIGINATOR     = 

OBJECT_NAME    = STARLINK-36317
OBJECT_ID      = 2026-026R
CENTER_NAME    = EARTH
REF_FRAME      = TEME
TIME_SYSTEM    = UTC
MEAN_ELEMENT_THEORY = SGP/SGP4

EPOCH          = 2026-03-08T14:00:01.999872
MEAN_MOTION    = 15.53965805
ECCENTRICITY   = .00013415
INCLINATION    = 97.2848
RA_OF_ASC_NODE = 122.1599
ARG_OF_PERICENTER = 90.4132
MEAN_ANOMALY   = 259.4301

EPHEMERIS_TYPE = 0
CLASSIFICATION_TYPE = U
NORAD_CAT_ID   = 67736
ELEMENT_SET_NO = 999
REV_AT_EPOCH   = 513
BSTAR          = -.31683422E-1
MEAN_MOTION_DOT = -.1814165E-1
MEAN_MOTION_DDOT = 0

CCSDS_OMM_VERS = 2.0
CREATION_DATE  = 
ORIGINATOR     = 

OBJECT_NAME    = STARLINK-36330
OBJECT_ID      = 2026-026S
CENTER_NAME    = EARTH
REF_FRAME      = TEME
TIME_SYSTEM    = UTC
MEAN_ELEMENT_THEORY = SGP/SGP4

EPOCH          = 2026-03-08T14:00:01.999872
MEAN_MOTION    = 15.54320457
ECCENTRICITY   = .0001182
INCLINATION    = 97.2842
RA_OF_ASC_NODE = 122.1701
ARG_OF_PERICENTER = 91.1374
MEAN_ANOMALY   = 282.4418

EPHEMERIS_TYPE = 0
CLASSIFICATION_TYPE = U
NORAD_CAT_ID   = 67737
ELEMENT_SET_NO = 999
REV_AT_EPOCH   = 513
BSTAR          = -.31406015E-1
MEAN_MOTION_DOT = -.1820852E-1
MEAN_MOTION_DDOT = 0

CCSDS_OMM_VERS = 2.0
CREATION_DATE  = 
ORIGINATOR     = 

OBJECT_NAME    = STARLINK-36327
OBJECT_ID      = 2026-026T
CENTER_NAME    = EARTH
REF_FRAME      = TEME
TIME_SYSTEM    = UTC
MEAN_ELEMENT_THEORY = SGP/SGP4

EPOCH          = 2026-03-08T14:00:01.999872
MEAN_MOTION    = 15.54616371
ECCENTRICITY   = .00013442
INCLINATION    = 97.2845
RA_OF_ASC_NODE = 122.1764
ARG_OF_PERICENTER = 78.3966
MEAN_ANOMALY   = 309.7121

EPHEMERIS_TYPE = 0
CLASSIFICATION_TYPE = U
NORAD_CAT_ID   = 67738
ELEMENT_SET_NO = 999
REV_AT_EPOCH   = 513
BSTAR          = -.31155069E-1
MEAN_MOTION_DOT = -.1825551E-1
MEAN_MOTION_DDOT = 0

CCSDS_OMM_VERS = 2.0
CREATION_DATE  = 
ORIGINATOR     = 

OBJECT_NAME    = STARLINK-36329
OBJECT_ID      = 2026-026U
CENTER_NAME    = EARTH
REF_FRAME      = TEME
TIME_SYSTEM    = UTC
MEAN_ELEMENT_THEORY = SGP/SGP4

EPOCH          = 2026-03-08T14:00:01.999872
MEAN_MOTION    = 15.55648271
ECCENTRICITY   = .00015102
INCLINATION    = 97.2844
RA_OF_ASC_NODE = 122.2069
ARG_OF_PERICENTER = 73.5676
MEAN_ANOMALY   = 25.3370

EPHEMERIS_TYPE = 0
CLASSIFICATION_TYPE = U
NORAD_CAT_ID   = 67739
ELEMENT_SET_NO = 999
REV_AT_EPOCH   = 513
BSTAR          = -.29887288E-1
MEAN_MOTION_DOT = -.182005E-1
MEAN_MOTION_DDOT = 0

CCSDS_OMM_VERS = 2.0
CREATION_DATE  = 
ORIGINATOR     = 

OBJECT_NAME    = STARLINK-36737
OBJECT_ID      = 2026-026V
CENTER_NAME    = EARTH
REF_FRAME      = TEME
TIME_SYSTEM    = UTC
MEAN_ELEMENT_THEORY = SGP/SGP4

EPOCH          = 2026-03-08T14:00:01.999872
MEAN_MOTION    = 15.54770592
ECCENTRICITY   = .00012888
INCLINATION    = 97.2840
RA_OF_ASC_NODE = 122.1815
ARG_OF_PERICENTER = 77.7442
MEAN_ANOMALY   = 322.5616

EPHEMERIS_TYPE = 0
CLASSIFICATION_TYPE = U
NORAD_CAT_ID   = 67740
ELEMENT_SET_NO = 999
REV_AT_EPOCH   = 513
BSTAR          = -.31113918E-1
MEAN_MOTION_DOT = -.1832585E-1
MEAN_MOTION_DDOT = 0

CCSDS_OMM_VERS = 2.0
CREATION_DATE  = 
ORIGINATOR     = 

OBJECT_NAME    = STARLINK-36740
OBJECT_ID      = 2026-026W
CENTER_NAME    = EARTH
REF_FRAME      = TEME
TIME_SYSTEM    = UTC
MEAN_ELEMENT_THEORY = SGP/SGP4

EPOCH          = 2026-03-08T14:00:01.999872
MEAN_MOTION    = 15.50444050
ECCENTRICITY   = .00016506
INCLINATION    = 97.2847
RA_OF_ASC_NODE = 122.1482
ARG_OF_PERICENTER = 95.0482
MEAN_ANOMALY   = 231.8105

EPHEMERIS_TYPE = 0
CLASSIFICATION_TYPE = U
NORAD_CAT_ID   = 67741
ELEMENT_SET_NO = 999
REV_AT_EPOCH   = 513
BSTAR          = -.31011941E-1
MEAN_MOTION_DOT = -.1588339E-1
MEAN_MOTION_DDOT = 0

CCSDS_OMM_VERS = 2.0
CREATION_DATE  = 
ORIGINATOR     = 

OBJECT_NAME    = STARLINK-36693
OBJECT_ID      = 2026-026X
CENTER_NAME    = EARTH
REF_FRAME      = TEME
TIME_SYSTEM    = UTC
MEAN_ELEMENT_THEORY = SGP/SGP4

EPOCH          = 2026-03-08T14:00:01.999872
MEAN_MOTION    = 15.51390692
ECCENTRICITY   = .00013224
INCLINATION    = 97.2845
RA_OF_ASC_NODE = 122.1468
ARG_OF_PERICENTER = 77.7963
MEAN_ANOMALY   = 243.7614

EPHEMERIS_TYPE = 0
CLASSIFICATION_TYPE = U
NORAD_CAT_ID   = 67742
ELEMENT_SET_NO = 999
REV_AT_EPOCH   = 527
BSTAR          = -.41274246E-1
MEAN_MOTION_DOT = -.2150696E-1
MEAN_MOTION_DDOT = 0

CCSDS_OMM_VERS = 2.0
CREATION_DATE  = 
ORIGINATOR     = 

OBJECT_NAME    = STARLINK-36717
OBJECT_ID      = 2026-026Y
CENTER_NAME    = EARTH
REF_FRAME      = TEME
TIME_SYSTEM    = UTC
MEAN_ELEMENT_THEORY = SGP/SGP4

EPOCH          = 2026-03-08T14:00:01.999872
MEAN_MOTION    = 15.53278116
ECCENTRICITY   = .00013241
INCLINATION    = 97.2841
RA_OF_ASC_NODE = 122.1770
ARG_OF_PERICENTER = 78.1464
MEAN_ANOMALY   = 310.5150

EPHEMERIS_TYPE = 0
CLASSIFICATION_TYPE = U
NORAD_CAT_ID   = 67743
ELEMENT_SET_NO = 999
REV_AT_EPOCH   = 527
BSTAR          = -.32653265E-1
MEAN_MOTION_DOT = -.1822325E-1
MEAN_MOTION_DDOT = 0

CCSDS_OMM_VERS = 2.0
CREATION_DATE  = 
ORIGINATOR     = 

OBJECT_NAME    = STARLINK-36692
OBJECT_ID      = 2026-026Z
CENTER_NAME    = EARTH
REF_FRAME      = TEME
TIME_SYSTEM    = UTC
MEAN_ELEMENT_THEORY = SGP/SGP4

EPOCH          = 2026-03-08T14:00:01.999872
MEAN_MOTION    = 15.52040269
ECCENTRICITY   = .00014563
INCLINATION    = 97.2848
RA_OF_ASC_NODE = 122.1584
ARG_OF_PERICENTER = 88.9555
MEAN_ANOMALY   = 262.5622

EPHEMERIS_TYPE = 0
CLASSIFICATION_TYPE = U
NORAD_CAT_ID   = 67744
ELEMENT_SET_NO = 999
REV_AT_EPOCH   = 513
BSTAR          = -.34263035E-1
MEAN_MOTION_DOT = -.1827709E-1
MEAN_MOTION_DDOT = 0

CCSDS_OMM_VERS = 2.0
CREATION_DATE  = 
ORIGINATOR     = 

OBJECT_NAME    = 2026-027A
OBJECT_ID      = 2026-027A
CENTER_NAME    = EARTH
REF_FRAME      = TEME
TIME_SYSTEM    = UTC
MEAN_ELEMENT_THEORY = SGP/SGP4

EPOCH          = 2026-03-08T15:33:55.267776
MEAN_MOTION    = 15.17687558
ECCENTRICITY   = .00101174
INCLINATION    = 97.4901
RA_OF_ASC_NODE = 196.6723
ARG_OF_PERICENTER = 198.3002
MEAN_ANOMALY   = 161.7869

EPHEMERIS_TYPE = 0
CLASSIFICATION_TYPE = U
NORAD_CAT_ID   = 67746
ELEMENT_SET_NO = 999
REV_AT_EPOCH   = 370
BSTAR          = .66187786E-3
MEAN_MOTION_DOT = .13301E-3
MEAN_MOTION_DDOT = 0

CCSDS_OMM_VERS = 2.0
CREATION_DATE  = 
ORIGINATOR     = 

OBJECT_NAME    = 2026-027B
OBJECT_ID      = 2026-027B
CENTER_NAME    = EARTH
REF_FRAME      = TEME
TIME_SYSTEM    = UTC
MEAN_ELEMENT_THEORY = SGP/SGP4

EPOCH          = 2026-03-08T15:31:35.299776
MEAN_MOTION    = 15.17787899
ECCENTRICITY   = .00102157
INCLINATION    = 97.4896
RA_OF_ASC_NODE = 196.6728
ARG_OF_PERICENTER = 200.8077
MEAN_ANOMALY   = 159.2742

EPHEMERIS_TYPE = 0
CLASSIFICATION_TYPE = U
NORAD_CAT_ID   = 67747
ELEMENT_SET_NO = 999
REV_AT_EPOCH   = 370
BSTAR          = .66908598E-3
MEAN_MOTION_DOT = .13486E-3
MEAN_MOTION_DDOT = 0

CCSDS_OMM_VERS = 2.0
CREATION_DATE  = 
ORIGINATOR     = 

OBJECT_NAME    = 2026-027C
OBJECT_ID      = 2026-027C
CENTER_NAME    = EARTH
REF_FRAME      = TEME
TIME_SYSTEM    = UTC
MEAN_ELEMENT_THEORY = SGP/SGP4

EPOCH          = 2026-03-08T15:29:32.902080
MEAN_MOTION    = 15.17799283
ECCENTRICITY   = .00105904
INCLINATION    = 97.4909
RA_OF_ASC_NODE = 196.6783
ARG_OF_PERICENTER = 202.9032
MEAN_ANOMALY   = 157.1731

EPHEMERIS_TYPE = 0
CLASSIFICATION_TYPE = U
NORAD_CAT_ID   = 67748
ELEMENT_SET_NO = 999
REV_AT_EPOCH   = 370
BSTAR          = .46523787E-3
MEAN_MOTION_DOT = .9355E-4
MEAN_MOTION_DDOT = 0

CCSDS_OMM_VERS = 2.0
CREATION_DATE  = 
ORIGINATOR     = 

OBJECT_NAME    = 2026-027D
OBJECT_ID      = 2026-027D
CENTER_NAME    = EARTH
REF_FRAME      = TEME
TIME_SYSTEM    = UTC
MEAN_ELEMENT_THEORY = SGP/SGP4

EPOCH          = 2026-03-08T15:24:17.949024
MEAN_MOTION    = 15.18146656
ECCENTRICITY   = .00102175
INCLINATION    = 97.4903
RA_OF_ASC_NODE = 196.6819
ARG_OF_PERICENTER = 208.3418
MEAN_ANOMALY   = 151.7261

EPHEMERIS_TYPE = 0
CLASSIFICATION_TYPE = U
NORAD_CAT_ID   = 67749
ELEMENT_SET_NO = 999
REV_AT_EPOCH   = 365
BSTAR          = .78329315E-3
MEAN_MOTION_DOT = .15968E-3
MEAN_MOTION_DDOT = 0

